{"fetched_at":"2026-07-21T17:53:07.094Z","source":"https://celestrak.org/NORAD/elements/gp.php?GROUP=planet&FORMAT=JSON","constellation":"superdove","records":[{"OBJECT_NAME":"FLOCK 4BE-3","OBJECT_ID":"2024-149CX","EPOCH":"2026-07-21T03:34:37.782624","CLASSIFICATION_TYPE":"U","MEAN_MOTION":15.42523828,"ECCENTRICITY":0.00054118,"INCLINATION":97.3683,"RA_OF_ASC_NODE":286.4091,"ARG_OF_PERICENTER":151.7856,"MEAN_ANOMALY":208.3686,"EPHEMERIS_TYPE":0,"NORAD_CAT_ID":60561,"ELEMENT_SET_NO":999,"REV_AT_EPOCH":10757,"BSTAR":0.00030957148,"MEAN_MOTION_DOT":0.00013353,"MEAN_MOTION_DDOT":0},{"OBJECT_NAME":"FLOCK 4BE-19","OBJECT_ID":"2024-149CZ","EPOCH":"2026-07-21T04:34:29.239680","CLASSIFICATION_TYPE":"U","MEAN_MOTION":15.45849185,"ECCENTRICITY":0.00061973,"INCLINATION":97.3729,"RA_OF_ASC_NODE":288.1684,"ARG_OF_PERICENTER":157.1905,"MEAN_ANOMALY":202.9621,"EPHEMERIS_TYPE":0,"NORAD_CAT_ID":60563,"ELEMENT_SET_NO":999,"REV_AT_EPOCH":10767,"BSTAR":0.00042564206,"MEAN_MOTION_DOT":0.00020606,"MEAN_MOTION_DDOT":0},{"OBJECT_NAME":"FLOCK 4G-8","OBJECT_ID":"2025-009E","EPOCH":"2026-07-21T03:47:54.314592","CLASSIFICATION_TYPE":"U","MEAN_MOTION":15.3031516,"ECCENTRICITY":0.00046756,"INCLINATION":97.3993,"RA_OF_ASC_NODE":284.0326,"ARG_OF_PERICENTER":172.5437,"MEAN_ANOMALY":187.5874,"EPHEMERIS_TYPE":0,"NORAD_CAT_ID":62613,"ELEMENT_SET_NO":999,"REV_AT_EPOCH":8411,"BSTAR":0.00026996541,"MEAN_MOTION_DOT":0.00007843,"MEAN_MOTION_DDOT":0},{"OBJECT_NAME":"FLOCK 4G-13","OBJECT_ID":"2025-009N","EPOCH":"2026-07-21T04:04:28.901280","CLASSIFICATION_TYPE":"U","MEAN_MOTION":15.49579562,"ECCENTRICITY":0.00067592,"INCLINATION":97.3936,"RA_OF_ASC_NODE":286.1698,"ARG_OF_PERICENTER":182.9243,"MEAN_ANOMALY":177.197,"EPHEMERIS_TYPE":0,"NORAD_CAT_ID":62621,"ELEMENT_SET_NO":999,"REV_AT_EPOCH":8425,"BSTAR":0.0013093384,"MEAN_MOTION_DOT":0.00072828,"MEAN_MOTION_DDOT":0},{"OBJECT_NAME":"FLOCK 4G-9","OBJECT_ID":"2025-009P","EPOCH":"2026-07-21T04:30:22.788000","CLASSIFICATION_TYPE":"U","MEAN_MOTION":15.28572461,"ECCENTRICITY":0.00046711,"INCLINATION":97.3949,"RA_OF_ASC_NODE":282.8972,"ARG_OF_PERICENTER":183.1939,"MEAN_ANOMALY":176.9271,"EPHEMERIS_TYPE":0,"NORAD_CAT_ID":62622,"ELEMENT_SET_NO":999,"REV_AT_EPOCH":8405,"BSTAR":0.00023999704,"MEAN_MOTION_DOT":0.00006598,"MEAN_MOTION_DDOT":0},{"OBJECT_NAME":"FLOCK 4G-7","OBJECT_ID":"2025-009R","EPOCH":"2026-07-21T03:27:04.790880","CLASSIFICATION_TYPE":"U","MEAN_MOTION":15.29945702,"ECCENTRICITY":0.00031766,"INCLINATION":97.393,"RA_OF_ASC_NODE":283.2809,"ARG_OF_PERICENTER":165.2945,"MEAN_ANOMALY":194.8389,"EPHEMERIS_TYPE":0,"NORAD_CAT_ID":62624,"ELEMENT_SET_NO":999,"REV_AT_EPOCH":8409,"BSTAR":0.0002553944,"MEAN_MOTION_DOT":0.00007329,"MEAN_MOTION_DDOT":0},{"OBJECT_NAME":"FLOCK 4G-12","OBJECT_ID":"2025-009S","EPOCH":"2026-07-21T03:20:48.746976","CLASSIFICATION_TYPE":"U","MEAN_MOTION":15.29848713,"ECCENTRICITY":0.00047701,"INCLINATION":97.401,"RA_OF_ASC_NODE":283.8318,"ARG_OF_PERICENTER":169.3971,"MEAN_ANOMALY":190.7371,"EPHEMERIS_TYPE":0,"NORAD_CAT_ID":62625,"ELEMENT_SET_NO":999,"REV_AT_EPOCH":8409,"BSTAR":0.000270116,"MEAN_MOTION_DOT":0.00007734,"MEAN_MOTION_DDOT":0},{"OBJECT_NAME":"FLOCK 4G-11","OBJECT_ID":"2025-009W","EPOCH":"2026-07-21T02:58:24.178080","CLASSIFICATION_TYPE":"U","MEAN_MOTION":15.299602,"ECCENTRICITY":0.0003247,"INCLINATION":97.3911,"RA_OF_ASC_NODE":283.3678,"ARG_OF_PERICENTER":167.0026,"MEAN_ANOMALY":193.1299,"EPHEMERIS_TYPE":0,"NORAD_CAT_ID":62629,"ELEMENT_SET_NO":999,"REV_AT_EPOCH":8410,"BSTAR":0.00029581446,"MEAN_MOTION_DOT":0.00008506,"MEAN_MOTION_DDOT":0},{"OBJECT_NAME":"FLOCK 4G-26","OBJECT_ID":"2025-009AA","EPOCH":"2026-07-20T19:26:01.710528","CLASSIFICATION_TYPE":"U","MEAN_MOTION":15.30148761,"ECCENTRICITY":0.00041714,"INCLINATION":97.4007,"RA_OF_ASC_NODE":283.6666,"ARG_OF_PERICENTER":161.2879,"MEAN_ANOMALY":198.8516,"EPHEMERIS_TYPE":0,"NORAD_CAT_ID":62633,"ELEMENT_SET_NO":999,"REV_AT_EPOCH":8405,"BSTAR":0.00025300325,"MEAN_MOTION_DOT":0.00007306,"MEAN_MOTION_DDOT":0},{"OBJECT_NAME":"FLOCK 4G-28","OBJECT_ID":"2025-009AB","EPOCH":"2026-07-21T03:32:21.657696","CLASSIFICATION_TYPE":"U","MEAN_MOTION":15.35344413,"ECCENTRICITY":0.00025981,"INCLINATION":97.4016,"RA_OF_ASC_NODE":286.8357,"ARG_OF_PERICENTER":149.6085,"MEAN_ANOMALY":210.5309,"EPHEMERIS_TYPE":0,"NORAD_CAT_ID":62634,"ELEMENT_SET_NO":999,"REV_AT_EPOCH":8429,"BSTAR":0.00019564255,"MEAN_MOTION_DOT":0.00006635,"MEAN_MOTION_DDOT":0},{"OBJECT_NAME":"FLOCK 4G-24","OBJECT_ID":"2025-009AE","EPOCH":"2026-07-21T03:31:28.672896","CLASSIFICATION_TYPE":"U","MEAN_MOTION":15.30439705,"ECCENTRICITY":0.00041493,"INCLINATION":97.4013,"RA_OF_ASC_NODE":284.3107,"ARG_OF_PERICENTER":150.3263,"MEAN_ANOMALY":209.8214,"EPHEMERIS_TYPE":0,"NORAD_CAT_ID":62637,"ELEMENT_SET_NO":999,"REV_AT_EPOCH":8412,"BSTAR":0.00026445971,"MEAN_MOTION_DOT":0.0000771,"MEAN_MOTION_DDOT":0},{"OBJECT_NAME":"FLOCK 4G-3","OBJECT_ID":"2025-009AG","EPOCH":"2026-07-21T03:24:25.559136","CLASSIFICATION_TYPE":"U","MEAN_MOTION":15.29943564,"ECCENTRICITY":0.0003768,"INCLINATION":97.4013,"RA_OF_ASC_NODE":284.0095,"ARG_OF_PERICENTER":154.5843,"MEAN_ANOMALY":205.5584,"EPHEMERIS_TYPE":0,"NORAD_CAT_ID":62639,"ELEMENT_SET_NO":999,"REV_AT_EPOCH":8409,"BSTAR":0.00024133114,"MEAN_MOTION_DOT":0.00006921,"MEAN_MOTION_DDOT":0},{"OBJECT_NAME":"FLOCK 4G-27","OBJECT_ID":"2025-009AJ","EPOCH":"2026-07-21T03:52:59.613312","CLASSIFICATION_TYPE":"U","MEAN_MOTION":15.2987542,"ECCENTRICITY":0.00031072,"INCLINATION":97.3922,"RA_OF_ASC_NODE":283.3695,"ARG_OF_PERICENTER":155.7381,"MEAN_ANOMALY":204.4007,"EPHEMERIS_TYPE":0,"NORAD_CAT_ID":62641,"ELEMENT_SET_NO":999,"REV_AT_EPOCH":8409,"BSTAR":0.0002422319,"MEAN_MOTION_DOT":0.00006932,"MEAN_MOTION_DDOT":0},{"OBJECT_NAME":"FLOCK 4G-29","OBJECT_ID":"2025-009AK","EPOCH":"2026-07-21T03:31:37.280928","CLASSIFICATION_TYPE":"U","MEAN_MOTION":15.29917895,"ECCENTRICITY":0.00038896,"INCLINATION":97.4009,"RA_OF_ASC_NODE":283.9738,"ARG_OF_PERICENTER":151.0712,"MEAN_ANOMALY":209.0745,"EPHEMERIS_TYPE":0,"NORAD_CAT_ID":62642,"ELEMENT_SET_NO":999,"REV_AT_EPOCH":8409,"BSTAR":0.00019426056,"MEAN_MOTION_DOT":0.00005551,"MEAN_MOTION_DDOT":0},{"OBJECT_NAME":"FLOCK 4G-22","OBJECT_ID":"2025-009AN","EPOCH":"2026-07-21T03:58:40.079424","CLASSIFICATION_TYPE":"U","MEAN_MOTION":15.29843391,"ECCENTRICITY":0.00034417,"INCLINATION":97.3995,"RA_OF_ASC_NODE":284.0248,"ARG_OF_PERICENTER":147.8212,"MEAN_ANOMALY":212.3239,"EPHEMERIS_TYPE":0,"NORAD_CAT_ID":62645,"ELEMENT_SET_NO":999,"REV_AT_EPOCH":8411,"BSTAR":0.00027615561,"MEAN_MOTION_DOT":0.00007907,"MEAN_MOTION_DDOT":0},{"OBJECT_NAME":"FLOCK 4G-25","OBJECT_ID":"2025-009AP","EPOCH":"2026-07-21T03:19:31.657440","CLASSIFICATION_TYPE":"U","MEAN_MOTION":15.30078902,"ECCENTRICITY":0.00029043,"INCLINATION":97.4001,"RA_OF_ASC_NODE":284.0793,"ARG_OF_PERICENTER":149.1396,"MEAN_ANOMALY":211.0016,"EPHEMERIS_TYPE":0,"NORAD_CAT_ID":62646,"ELEMENT_SET_NO":999,"REV_AT_EPOCH":8411,"BSTAR":0.00024830109,"MEAN_MOTION_DOT":0.00007153,"MEAN_MOTION_DDOT":0}]}
