FLOCK 4BE-3             
1 60561U 24149CX  26202.14904841  .00013353  00000+0  30957-3 0  9992
2 60561  97.3683 286.4091 0005411 151.7856 208.3686 15.42523828107573
FLOCK 4BE-19            
1 60563U 24149CZ  26202.19061620  .00020606  00000+0  42564-3 0  9994
2 60563  97.3729 288.1684 0006197 157.1905 202.9621 15.45849185107670
FLOCK 4G-8              
1 62613U 25009E   26202.15826753  .00007843  00000+0  26997-3 0  9990
2 62613  97.3993 284.0326 0004675 172.5437 187.5874 15.30315160 84115
FLOCK 4G-13             
1 62621U 25009N   26202.16977895  .00072828  00000+0  13093-2 0  9991
2 62621  97.3936 286.1698 0006759 182.9243 177.1970 15.49579562 84256
FLOCK 4G-9              
1 62622U 25009P   26202.18776375  .00006598  00000+0  24000-3 0  9996
2 62622  97.3949 282.8972 0004671 183.1939 176.9271 15.28572461 84052
FLOCK 4G-7              
1 62624U 25009R   26202.14380545  .00007329  00000+0  25539-3 0  9995
2 62624  97.3930 283.2809 0003176 165.2945 194.8389 15.29945702 84091
FLOCK 4G-12             
1 62625U 25009S   26202.13945309  .00007734  00000+0  27012-3 0  9998
2 62625  97.4010 283.8318 0004770 169.3971 190.7371 15.29848713 84098
FLOCK 4G-11             
1 62629U 25009W   26202.12389095  .00008506  00000+0  29581-3 0  9996
2 62629  97.3911 283.3678 0003247 167.0026 193.1299 15.29960200 84103
FLOCK 4G-26             
1 62633U 25009AA  26201.80974202  .00007306  00000+0  25300-3 0  9997
2 62633  97.4007 283.6666 0004171 161.2879 198.8516 15.30148761 84054
FLOCK 4G-28             
1 62634U 25009AB  26202.14747289  .00006635  00000+0  19564-3 0  9998
2 62634  97.4016 286.8357 0002598 149.6085 210.5309 15.35344413 84292
FLOCK 4G-24             
1 62637U 25009AE  26202.14685964  .00007710  00000+0  26446-3 0  9994
2 62637  97.4013 284.3107 0004149 150.3263 209.8214 15.30439705 84121
FLOCK 4G-3              
1 62639U 25009AG  26202.14196249  .00006921  00000+0  24133-3 0  9993
2 62639  97.4013 284.0095 0003768 154.5843 205.5584 15.29943564 84092
FLOCK 4G-27             
1 62641U 25009AJ  26202.16180108  .00006932  00000+0  24223-3 0  9997
2 62641  97.3922 283.3695 0003107 155.7381 204.4007 15.29875420 84091
FLOCK 4G-29             
1 62642U 25009AK  26202.14695927  .00005551  00000+0  19426-3 0  9991
2 62642  97.4009 283.9738 0003889 151.0712 209.0745 15.29917895 84090
FLOCK 4G-22             
1 62645U 25009AN  26202.16574166  .00007907  00000+0  27616-3 0  9994
2 62645  97.3995 284.0248 0003441 147.8212 212.3239 15.29843391 84113
FLOCK 4G-25             
1 62646U 25009AP  26202.13856085  .00007153  00000+0  24830-3 0  9993
2 62646  97.4001 284.0793 0002904 149.1396 211.0016 15.30078902 84118
